STARLINK-31510          
1 59575U 24076M   26068.17949132  .00002728  00000+0  10858-3 0  9991
2 59575  43.0034   8.5180 0000642 282.3748  77.7032 15.27587823106466
LUR-1                   
1 60506U 24149AQ  26068.79566301  .00009121  00000+0  32985-3 0  9998
2 60506  97.3790 148.4255 0002777 309.1571  50.9421 15.28658648 86785
